[{"OBJECT_NAME":"GREENCUBE (IO-117)","OBJECT_ID":"2022-080E","EPOCH":"2026-03-05T16:27:56.865312","MEAN_MOTION":6.42583119,"ECCENTRICITY":0.0009074,"INCLINATION":70.1624,"RA_OF_ASC_NODE":334.2457,"ARG_OF_PERICENTER":312.156,"MEAN_ANOMALY":47.8329,"EPHEMERIS_TYPE":0,"CLASSIFICATION_TYPE":"U","NORAD_CAT_ID":53109,"ELEMENT_SET_NO":999,"REV_AT_EPOCH":8541,"BSTAR":0,"MEAN_MOTION_DOT":-3.0e-8,"MEAN_MOTION_DDOT":0},{"OBJECT_NAME":"UMKA 1 (RS40S)","OBJECT_ID":"2023-091G","EPOCH":"2026-03-05T18:04:03.557280","MEAN_MOTION":15.19527136,"ECCENTRICITY":0.0014632,"INCLINATION":97.5185,"RA_OF_ASC_NODE":123.875,"ARG_OF_PERICENTER":118.3467,"MEAN_ANOMALY":241.9245,"EPHEMERIS_TYPE":0,"CLASSIFICATION_TYPE":"U","NORAD_CAT_ID":57172,"ELEMENT_SET_NO":999,"REV_AT_EPOCH":14829,"BSTAR":0.00042562,"MEAN_MOTION_DOT":9.002e-5,"MEAN_MOTION_DDOT":0},{"OBJECT_NAME":"CUBESX-HSE 3 (RS42S)","OBJECT_ID":"2023-091N","EPOCH":"2026-03-05T18:24:15.000192","MEAN_MOTION":15.2845881,"ECCENTRICITY":0.0012814,"INCLINATION":97.5213,"RA_OF_ASC_NODE":129.1975,"ARG_OF_PERICENTER":99.6677,"MEAN_ANOMALY":260.601,"EPHEMERIS_TYPE":0,"CLASSIFICATION_TYPE":"U","NORAD_CAT_ID":57178,"ELEMENT_SET_NO":999,"REV_AT_EPOCH":14861,"BSTAR":0.00059856,"MEAN_MOTION_DOT":0.00016562,"MEAN_MOTION_DDOT":0},{"OBJECT_NAME":"MONITOR-3 (RS58S)","OBJECT_ID":"2023-091Q","EPOCH":"2026-03-05T18:39:35.777952","MEAN_MOTION":15.25619209,"ECCENTRICITY":0.0013719,"INCLINATION":97.5208,"RA_OF_ASC_NODE":127.5697,"ARG_OF_PERICENTER":104.2635,"MEAN_ANOMALY":256.0127,"EPHEMERIS_TYPE":0,"CLASSIFICATION_TYPE":"U","NORAD_CAT_ID":57180,"ELEMENT_SET_NO":999,"REV_AT_EPOCH":14851,"BSTAR":0.00057257,"MEAN_MOTION_DOT":0.00014534,"MEAN_MOTION_DDOT":0},{"OBJECT_NAME":"MONITOR-4 (RS57S)","OBJECT_ID":"2023-091S","EPOCH":"2026-03-05T18:18:29.547936","MEAN_MOTION":15.25704154,"ECCENTRICITY":0.0013752,"INCLINATION":97.5203,"RA_OF_ASC_NODE":127.5196,"ARG_OF_PERICENTER":104.7007,"MEAN_ANOMALY":255.5757,"EPHEMERIS_TYPE":0,"CLASSIFICATION_TYPE":"U","NORAD_CAT_ID":57182,"ELEMENT_SET_NO":999,"REV_AT_EPOCH":14851,"BSTAR":0.00054577,"MEAN_MOTION_DOT":0.00013884,"MEAN_MOTION_DDOT":0},{"OBJECT_NAME":"MONITOR-2 (RS39S)","OBJECT_ID":"2023-091U","EPOCH":"2026-03-05T18:48:31.484736","MEAN_MOTION":15.17856092,"ECCENTRICITY":0.0012943,"INCLINATION":97.5205,"RA_OF_ASC_NODE":123.7434,"ARG_OF_PERICENTER":110.8922,"MEAN_ANOMALY":249.3698,"EPHEMERIS_TYPE":0,"CLASSIFICATION_TYPE":"U","NORAD_CAT_ID":57184,"ELEMENT_SET_NO":999,"REV_AT_EPOCH":14826,"BSTAR":0.00038433,"MEAN_MOTION_DOT":7.732e-5,"MEAN_MOTION_DDOT":0},{"OBJECT_NAME":"SVYATOBOR 1 (RS60S)","OBJECT_ID":"2023-091X","EPOCH":"2026-03-05T18:18:06.105888","MEAN_MOTION":15.24709002,"ECCENTRICITY":0.00113,"INCLINATION":97.5213,"RA_OF_ASC_NODE":128.0879,"ARG_OF_PERICENTER":97.0942,"MEAN_ANOMALY":263.1581,"EPHEMERIS_TYPE":0,"CLASSIFICATION_TYPE":"U","NORAD_CAT_ID":57187,"ELEMENT_SET_NO":999,"REV_AT_EPOCH":14854,"BSTAR":0.00046896,"MEAN_MOTION_DOT":0.00011555,"MEAN_MOTION_DDOT":0},{"OBJECT_NAME":"VIZARD-METEO (RS38S)","OBJECT_ID":"2023-091Z","EPOCH":"2026-03-05T18:44:14.378208","MEAN_MOTION":15.32576077,"ECCENTRICITY":0.0008972,"INCLINATION":97.5202,"RA_OF_ASC_NODE":132.4056,"ARG_OF_PERICENTER":84.7569,"MEAN_ANOMALY":275.4696,"EPHEMERIS_TYPE":0,"CLASSIFICATION_TYPE":"U","NORAD_CAT_ID":57189,"ELEMENT_SET_NO":999,"REV_AT_EPOCH":14883,"BSTAR":0.00067725,"MEAN_MOTION_DOT":0.00021285,"MEAN_MOTION_DDOT":0},{"OBJECT_NAME":"NANOZOND 1 (RS49S)","OBJECT_ID":"2023-091AA","EPOCH":"2026-03-04T18:50:11.914368","MEAN_MOTION":15.72447637,"ECCENTRICITY":4.56e-5,"INCLINATION":97.509,"RA_OF_ASC_NODE":143.6448,"ARG_OF_PERICENTER":27.7219,"MEAN_ANOMALY":332.4068,"EPHEMERIS_TYPE":0,"CLASSIFICATION_TYPE":"U","NORAD_CAT_ID":57190,"ELEMENT_SET_NO":999,"REV_AT_EPOCH":14950,"BSTAR":0.0017099321,"MEAN_MOTION_DOT":0.00233103,"MEAN_MOTION_DDOT":0},{"OBJECT_NAME":"POLYTECH-UNIVERSE 3 (RS46S)","OBJECT_ID":"2023-091AB","EPOCH":"2026-03-05T18:11:53.480832","MEAN_MOTION":15.18038852,"ECCENTRICITY":0.0017247,"INCLINATION":97.5184,"RA_OF_ASC_NODE":123.2253,"ARG_OF_PERICENTER":126.6745,"MEAN_ANOMALY":233.6077,"EPHEMERIS_TYPE":0,"CLASSIFICATION_TYPE":"U","NORAD_CAT_ID":57191,"ELEMENT_SET_NO":999,"REV_AT_EPOCH":14825,"BSTAR":0.00036883,"MEAN_MOTION_DOT":7.469e-5,"MEAN_MOTION_DDOT":0},{"OBJECT_NAME":"UTMN 2 (RS27S)","OBJECT_ID":"2023-091AP","EPOCH":"2026-03-05T18:39:26.419968","MEAN_MOTION":15.29342536,"ECCENTRICITY":0.0009873,"INCLINATION":97.5204,"RA_OF_ASC_NODE":130.7142,"ARG_OF_PERICENTER":88.7218,"MEAN_ANOMALY":271.5153,"EPHEMERIS_TYPE":0,"CLASSIFICATION_TYPE":"U","NORAD_CAT_ID":57203,"ELEMENT_SET_NO":999,"REV_AT_EPOCH":14872,"BSTAR":0.00057843,"MEAN_MOTION_DOT":0.00016426,"MEAN_MOTION_DDOT":0},{"OBJECT_NAME":"KUZGTU 1 (RS47S)","OBJECT_ID":"2023-091AV","EPOCH":"2026-03-05T17:45:14.724000","MEAN_MOTION":15.27336572,"ECCENTRICITY":0.0012991,"INCLINATION":97.5188,"RA_OF_ASC_NODE":128.296,"ARG_OF_PERICENTER":102.3499,"MEAN_ANOMALY":257.9194,"EPHEMERIS_TYPE":0,"CLASSIFICATION_TYPE":"U","NORAD_CAT_ID":57217,"ELEMENT_SET_NO":999,"REV_AT_EPOCH":14857,"BSTAR":0.00058153,"MEAN_MOTION_DOT":0.00015547,"MEAN_MOTION_DDOT":0},{"OBJECT_NAME":"SONATE-2","OBJECT_ID":"2024-043Q","EPOCH":"2026-03-04T19:42:15.897312","MEAN_MOTION":15.50902747,"ECCENTRICITY":0.00078015,"INCLINATION":97.5393,"RA_OF_ASC_NODE":208.5178,"ARG_OF_PERICENTER":223.2577,"MEAN_ANOMALY":136.8062,"EPHEMERIS_TYPE":0,"CLASSIFICATION_TYPE":"U","NORAD_CAT_ID":59112,"ELEMENT_SET_NO":999,"REV_AT_EPOCH":11167,"BSTAR":0.00086262241,"MEAN_MOTION_DOT":0.0005011,"MEAN_MOTION_DDOT":0},{"OBJECT_NAME":"MESAT1","OBJECT_ID":"2024-125G","EPOCH":"2026-03-05T15:24:17.155872","MEAN_MOTION":15.53164486,"ECCENTRICITY":0.0011322,"INCLINATION":97.2457,"RA_OF_ASC_NODE":280.4449,"ARG_OF_PERICENTER":238.3876,"MEAN_ANOMALY":121.6273,"EPHEMERIS_TYPE":0,"CLASSIFICATION_TYPE":"U","NORAD_CAT_ID":60209,"ELEMENT_SET_NO":999,"REV_AT_EPOCH":9344,"BSTAR":0.00074582,"MEAN_MOTION_DOT":0.0004701,"MEAN_MOTION_DDOT":0},{"OBJECT_NAME":"OOV-CUBE (TUBSAT-30)","OBJECT_ID":"2024-128F","EPOCH":"2026-03-05T16:51:21.620448","MEAN_MOTION":15.02213817,"ECCENTRICITY":0.0054836,"INCLINATION":61.9942,"RA_OF_ASC_NODE":226.2774,"ARG_OF_PERICENTER":111.5078,"MEAN_ANOMALY":249.1871,"EPHEMERIS_TYPE":0,"CLASSIFICATION_TYPE":"U","NORAD_CAT_ID":60240,"ELEMENT_SET_NO":999,"REV_AT_EPOCH":9056,"BSTAR":0.00037912,"MEAN_MOTION_DOT":4.973e-5,"MEAN_MOTION_DDOT":0},{"OBJECT_NAME":"COLIBRI-S (RS67S)","OBJECT_ID":"2024-199M","EPOCH":"2026-03-05T15:57:08.382240","MEAN_MOTION":15.43226103,"ECCENTRICITY":0.000789,"INCLINATION":97.3162,"RA_OF_ASC_NODE":297.8077,"ARG_OF_PERICENTER":303.409,"MEAN_ANOMALY":56.6402,"EPHEMERIS_TYPE":0,"CLASSIFICATION_TYPE":"U","NORAD_CAT_ID":61746,"ELEMENT_SET_NO":999,"REV_AT_EPOCH":12142,"BSTAR":0.00059486,"MEAN_MOTION_DOT":0.00026411,"MEAN_MOTION_DDOT":0}]
