GREENCUBE (IO-117)      
1 53109U 22080E   26064.68607483 -.00000003  00000+0  00000+0 0  9992
2 53109  70.1624 334.2457 0009074 312.1560  47.8329  6.42583119 85416
UMKA 1 (RS40S)          
1 57172U 23091G   26064.75281895  .00009002  00000+0  42562-3 0  9992
2 57172  97.5185 123.8750 0014632 118.3467 241.9245 15.19527136148292
CUBESX-HSE 3 (RS42S)    
1 57178U 23091N   26064.76684028  .00016562  00000+0  59856-3 0  9997
2 57178  97.5213 129.1975 0012814  99.6677 260.6010 15.28458810148618
MONITOR-3 (RS58S)       
1 57180U 23091Q   26064.77749743  .00014534  00000+0  57257-3 0  9997
2 57180  97.5208 127.5697 0013719 104.2635 256.0127 15.25619209148515
MONITOR-4 (RS57S)       
1 57182U 23091S   26064.76284199  .00013884  00000+0  54577-3 0  9996
2 57182  97.5203 127.5196 0013752 104.7007 255.5757 15.25704154148518
MONITOR-2 (RS39S)       
1 57184U 23091U   26064.78369774  .00007732  00000+0  38433-3 0  9991
2 57184  97.5205 123.7434 0012943 110.8922 249.3698 15.17856092148267
SVYATOBOR 1 (RS60S)     
1 57187U 23091X   26064.76257067  .00011555  00000+0  46896-3 0  9993
2 57187  97.5213 128.0879 0011300  97.0942 263.1581 15.24709002148546
VIZARD-METEO (RS38S)    
1 57189U 23091Z   26064.78072197  .00021285  00000+0  67725-3 0  9991
2 57189  97.5202 132.4056 0008972  84.7569 275.4696 15.32576077148839
NANOZOND 1 (RS49S)      
1 57190U 23091AA  26063.78486012  .00233103  00000+0  17099-2 0  9999
2 57190  97.5090 143.6448 0000456  27.7219 332.4068 15.72447637149508
POLYTECH-UNIVERSE 3 (R*)
1 57191U 23091AB  26064.75825788  .00007469  00000+0  36883-3 0  9992
2 57191  97.5184 123.2253 0017247 126.6745 233.6077 15.18038852148258
UTMN 2 (RS27S)          
1 57203U 23091AP  26064.77738912  .00016426  00000+0  57843-3 0  9992
2 57203  97.5204 130.7142 0009873  88.7218 271.5153 15.29342536148721
KUZGTU 1 (RS47S)        
1 57217U 23091AV  26064.73975375  .00015547  00000+0  58153-3 0  9997
2 57217  97.5188 128.2960 0012991 102.3499 257.9194 15.27336572148573
SONATE-2                
1 59112U 24043Q   26063.82101733  .00050110  00000+0  86262-3 0  9996
2 59112  97.5393 208.5178 0007801 223.2577 136.8062 15.50902747111673
MESAT1                  
1 60209U 24125G   26064.64186523  .00047010  00000+0  74582-3 0  9994
2 60209  97.2457 280.4449 0011322 238.3876 121.6273 15.53164486 93445
OOV-CUBE (TUBSAT-30)    
1 60240U 24128F   26064.70233357  .00004973  00000+0  37912-3 0  9994
2 60240  61.9942 226.2774 0054836 111.5078 249.1871 15.02213817 90566
COLIBRI-S (RS67S)       
1 61746U 24199M   26064.66468035  .00026411  00000+0  59486-3 0  9993
2 61746  97.3162 297.8077 0007890 303.4090  56.6402 15.43226103121427
